IRIDIUM 180             
1 43922U 19002A   24254.12600029  .00000022  00000+0  79995-6 0  9997
2 43922  86.3907 263.1374 0002395  88.5846 271.5624 14.34216142296573
IRIDIUM 168             
1 43924U 19002C   24254.11966461 -.00000033  00000+0 -18943-4 0  9991
2 43924  86.3910 263.1992 0002225  90.4598 269.6852 14.34217018296511
IRIDIUM 173             
1 43925U 19002D   24253.75813508 -.00000051  00000+0 -25193-4 0  9999
2 43925  86.3906 263.2660 0002210  88.0774 272.0675 14.34217115296444
IRIDIUM 169             
1 43926U 19002E   24254.19203457  .00001231  00000+0  39586-3 0  9994
2 43926  86.4192 294.7348 0001492  35.6361 324.4937 14.38610998297495
IRIDIUM 172             
1 43927U 19002F   24254.51924501  .00000035  00000+0  52952-5 0  9996
2 43927  86.3905 262.9531 0002197  91.9023 268.2424 14.34217476296564
IRIDIUM 175             
1 43928U 19002G   24254.20783861  .00001936  00000+0  30295-3 0  9990
2 43928  86.1492 231.4612 0002293  89.4600 270.6879 14.72269788304347
